OBJECT_NAME,OBJECT_ID,EPOCH,MEAN_MOTION,ECCENTRICITY,INCLINATION,RA_OF_ASC_NODE,ARG_OF_PERICENTER,MEAN_ANOMALY,EPHEMERIS_TYPE,CLASSIFICATION_TYPE,NORAD_CAT_ID,ELEMENT_SET_NO,REV_AT_EPOCH,BSTAR,MEAN_MOTION_DOT,MEAN_MOTION_DDOT
SENTINEL-3B,2018-039A,2024-01-20T07:43:18.333408,14.26730871,.0000876,98.6324,89.3145,69.4576,290.6699,0,U,43437,999,29880,.13218E-3,.276E-5,0
GAOFEN-5 01,2018-043A,2024-01-20T10:55:51.672288,14.58828826,.0000815,98.3378,330.1377,322.5895,37.5247,0,U,43461,999,30348,.23913E-3,.1071E-4,0
GAOFEN-6,2018-048A,2024-01-20T18:15:14.774688,14.76525022,.001143,97.8799,98.9008,129.1987,231.0240,0,U,43484,999,30376,.24392E-3,.1652E-4,0
GAOFEN-11 01,2018-063A,2024-01-20T20:13:04.442592,15.27081960,.0007153,97.2541,90.7606,277.6933,82.3494,0,U,43585,999,30509,.40668E-3,.10745E-3,0
ICESAT-2,2018-070A,2024-01-20T19:42:54.606240,15.28260457,.0001428,91.9942,54.7823,273.8163,86.2923,0,U,43613,999,29831,.2082E-3,.573E-4,0
HYSIS,2018-096A,2024-01-20T19:04:03.187776,14.78664405,.0003176,97.8873,87.8753,90.7709,269.3866,0,U,43719,999,27761,.3119E-3,.2235E-4,0
KAZSTSAT,2018-099AB,2024-01-20T02:27:36.375840,14.95790089,.0009102,97.5519,76.6637,117.1230,243.0920,0,U,43783,999,27969,.26122E-3,.2861E-4,0
SAUDISAT 5A,2018-102A,2024-01-20T18:16:22.558080,15.14005888,.0012244,97.4298,90.0260,340.2953,19.7804,0,U,43831,999,28212,.30961E-3,.5567E-4,0
SAUDISAT 5B,2018-102C,2024-01-20T19:03:09.437472,15.14583153,.0013134,97.4341,91.6547,344.3773,15.7052,0,U,43833,999,28220,.36761E-3,.6734E-4,0
GAOFEN-10R,2019-066A,2024-01-20T20:32:03.378624,14.82522773,.000106,97.9508,323.4505,202.3334,157.7833,0,U,44622,999,23223,.4271E-3,.3379E-4,0
CARTOSAT-3,2019-081A,2024-01-20T18:42:15.124608,15.19122438,.0011907,97.5573,78.7663,342.7563,17.3265,0,U,44804,999,23005,.32059E-3,.6675E-4,0
GAOFEN-12 01,2019-082A,2024-01-20T18:21:27.259776,14.81026155,.0001629,97.8314,38.3445,91.0693,269.0707,0,U,44819,999,22410,.13679E-3,.1009E-4,0
CSG-1,2019-092A,2024-01-20T17:44:46.774464,14.82151771,.0001556,97.8806,206.0735,77.1180,283.0207,0,U,44873,999,22135,.16744E-3,.1281E-4,0
NUSAT-6 (HYPATIA),2020-061A,2024-01-20T18:14:09.176352,15.47266800,.0004429,97.2539,93.5631,136.8283,223.3315,0,U,46272,999,18843,.81776E-3,.41751E-3,0
NEMO-HD,2020-061F,2024-01-20T18:17:41.436960,15.23672787,.000083,97.3204,87.0491,26.7925,333.3355,0,U,46277,999,18732,.32241E-3,.7666E-4,0
SENTINEL-6,2020-086A,2024-01-20T13:48:05.476896,12.80930292,.0007722,66.0407,159.9381,269.7643,90.2487,0,U,46984,999,14779,.56947E-4,-.48E-6,0
GAOFEN-12 02,2021-026A,2024-01-20T19:31:21.787104,14.80910649,.0001086,97.9404,13.7918,62.6668,297.4654,0,U,48079,999,15178,.15508E-3,.1146E-4,0
PLEIADES NEO 3,2021-034A,2024-01-20T18:58:45.858720,14.81672772,.0001118,97.8949,97.1618,89.3524,270.7817,0,U,48268,999,14758,.24433E-3,.1871E-4,0
NUSAT-19 (ROSALIND),2021-059AC,2024-01-20T18:13:01.364448,15.39155891,.0005824,97.5729,166.3602,179.3691,180.7563,0,U,48905,999,14291,.90327E-3,.35107E-3,0
PLEIADES NEO 4,2021-073E,2024-01-20T10:03:53.563680,14.81666153,.0001069,97.8946,96.7917,88.5252,271.6083,0,U,49070,999,13124,.29667E-4,.181E-5,0
LANDSAT 9,2021-088A,2024-01-20T18:38:12.719904,14.57123255,.0001043,98.2064,92.7892,89.1505,270.9813,0,U,49260,999,12307,.19325E-3,.826E-5,0
CSG-2,2022-008A,2024-01-20T16:56:11.957280,14.82156133,.0001483,97.8804,206.0401,84.7570,275.3812,0,U,51444,999,10646,.13366E-3,.1012E-4,0
INS-2TD,2022-013C,2024-01-20T13:21:38.104992,15.32335683,.0006382,97.5361,40.0171,338.3868,21.7103,0,U,51658,999,10715,.97844E-3,.30574E-3,0
GAOFEN-12 03,2022-069A,2024-01-20T19:02:38.632416,14.81176350,.0001301,97.9290,273.6299,72.1559,287.9795,0,U,52912,999,8465,.4114E-3,.3148E-4,0
SWOT,2022-173A,2024-01-20T14:25:51.296160,14.00168781,.0000332,77.6109,141.3122,286.9666,73.1449,0,U,54754,999,5619,.71883E-4,.103E-5,0
GAOFEN-12 04,2023-123A,2024-01-20T18:21:43.509024,14.81098862,.0002121,97.9114,300.1671,35.6640,324.4714,0,U,57654,999,2265,.37626E-3,.287E-4,0
